{"type": "FeatureCollection", "features": [ {"type": "Feature", "properties": {"norad_id": 42741, "name": "EUTELSAT 172B", "group": "eutelsat", "lat": 0.01254408712179501, "lon": -175.51297636552619, "alt_km": 35787.49633678501, "timestamp": "2025-12-20T18:51:31.389251+00:00", "meta": {"OBJECT_NAME": "EUTELSAT 172B", "OBJECT_ID": "2017-029B", "EPOCH": "2025-12-20T11:32:38.877792", "MEAN_MOTION": 1.00270576, "ECCENTRICITY": 3.078e-05, "INCLINATION": 0.0366, "RA_OF_ASC_NODE": 126.084, "ARG_OF_PERICENTER": 270.789, "MEAN_ANOMALY": 37.6034, "EPHEMERIS_TYPE": 0, "CLASSIFICATION_TYPE": "U", "NORAD_CAT_ID": 42741, "ELEMENT_SET_NO": 999, "REV_AT_EPOCH": 3193, "BSTAR": 0, "MEAN_MOTION_DOT": 1.8e-07, "MEAN_MOTION_DDOT": 0}, "tle": {"line1": "1 42741U 17029B   25354.48100553  .00000018  00000+0  00000+0 0  9999", "line2": "2 42741   0.0366 126.0840 0000307 270.7890  37.6034  1.00270576 31936"}}, "geometry": {"type": "Point", "coordinates": [-175.51297636552619, 0.01254408712179501]}}, {"type": "Feature", "properties": {"norad_id": 44334, "name": "EUTELSAT 7C", "group": "eutelsat", "lat": -0.013698713569431035, "lon": 19.498508067712827, "alt_km": 35794.06549124872, "timestamp": "2025-12-20T18:51:31.389263+00:00", "meta": {"OBJECT_NAME": "EUTELSAT 7C", "OBJECT_ID": "2019-034B", "EPOCH": "2025-12-20T06:24:55.272960", "MEAN_MOTION": 1.00270763, "ECCENTRICITY": 0.00030526, "INCLINATION": 0.0729, "RA_OF_ASC_NODE": 179.1336, "ARG_OF_PERICENTER": 73.4447, "MEAN_ANOMALY": 299.7414, "EPHEMERIS_TYPE": 0, "CLASSIFICATION_TYPE": "U", "NORAD_CAT_ID": 44334, "ELEMENT_SET_NO": 999, "REV_AT_EPOCH": 504, "BSTAR": 0, "MEAN_MOTION_DOT": 7.2e-07, "MEAN_MOTION_DDOT": 0}, "tle": {"line1": "1 44334U 19034B   25354.26730640  .00000072  00000+0  00000+0 0  9999", "line2": "2 44334   0.0729 179.1336 0003052  73.4447 299.7414  1.00270763  5048"}}, "geometry": {"type": "Point", "coordinates": [19.498508067712827, -0.013698713569431035]}}, {"type": "Feature", "properties": {"norad_id": 44624, "name": "EUTELSAT 5 WEST B", "group": "eutelsat", "lat": 0.04300858224926049, "lon": 7.525510672227804, "alt_km": 35788.031698659186, "timestamp": "2025-12-20T18:51:31.389274+00:00", "meta": {"OBJECT_NAME": "EUTELSAT 5 WEST B", "OBJECT_ID": "2019-067A", "EPOCH": "2025-12-20T06:21:33.095232", "MEAN_MOTION": 1.00271304, "ECCENTRICITY": 0.00029967, "INCLINATION": 0.0675, "RA_OF_ASC_NODE": 334.6268, "ARG_OF_PERICENTER": 294.5893, "MEAN_ANOMALY": 270.2794, "EPHEMERIS_TYPE": 0, "CLASSIFICATION_TYPE": "U", "NORAD_CAT_ID": 44624, "ELEMENT_SET_NO": 999, "REV_AT_EPOCH": 2264, "BSTAR": 0, "MEAN_MOTION_DOT": -1.8e-07, "MEAN_MOTION_DDOT": 0}, "tle": {"line1": "1 44624U 19067A   25354.26496638 -.00000018  00000+0  00000+0 0  9994", "line2": "2 44624   0.0675 334.6268 0002996 294.5893 270.2794  1.00271304 22641"}}, "geometry": {"type": "Point", "coordinates": [7.525510672227804, 0.04300858224926049]}}, {"type": "Feature", "properties": {"norad_id": 45027, "name": "EUTELSAT KONNECT", "group": "eutelsat", "lat": -0.055332577137313016, "lon": 19.700127802886193, "alt_km": 35786.89912458442, "timestamp": "2025-12-20T18:51:31.389286+00:00", "meta": {"OBJECT_NAME": "EUTELSAT KONNECT", "OBJECT_ID": "2020-005B", "EPOCH": "2025-12-20T06:25:02.761248", "MEAN_MOTION": 1.00269751, "ECCENTRICITY": 0.00013058, "INCLINATION": 0.0718, "RA_OF_ASC_NODE": 94.8547, "ARG_OF_PERICENTER": 192.1408, "MEAN_ANOMALY": 265.5721, "EPHEMERIS_TYPE": 0, "CLASSIFICATION_TYPE": "U", "NORAD_CAT_ID": 45027, "ELEMENT_SET_NO": 999, "REV_AT_EPOCH": 2254, "BSTAR": 0, "MEAN_MOTION_DOT": 7.3e-07, "MEAN_MOTION_DDOT": 0}, "tle": {"line1": "1 45027U 20005B   25354.26739307  .00000073  00000+0  00000+0 0  9999", "line2": "2 45027   0.0718  94.8547 0001305 192.1408 265.5721  1.00269751 22549"}}, "geometry": {"type": "Point", "coordinates": [19.700127802886193, -0.055332577137313016]}}, {"type": "Feature", "properties": {"norad_id": 49056, "name": "EUTELSAT QUANTUM", "group": "eutelsat", "lat": 0.02693702598499972, "lon": 60.21598041065479, "alt_km": 35796.906178550635, "timestamp": "2025-12-20T18:51:31.389297+00:00", "meta": {"OBJECT_NAME": "EUTELSAT QUANTUM", "OBJECT_ID": "2021-069B", "EPOCH": "2025-12-20T13:27:29.799648", "MEAN_MOTION": 1.0027209, "ECCENTRICITY": 0.00033324, "INCLINATION": 0.0192, "RA_OF_ASC_NODE": 34.4183, "ARG_OF_PERICENTER": 245.1221, "MEAN_ANOMALY": 59.4319, "EPHEMERIS_TYPE": 0, "CLASSIFICATION_TYPE": "U", "NORAD_CAT_ID": 49056, "ELEMENT_SET_NO": 999, "REV_AT_EPOCH": 1613, "BSTAR": 0, "MEAN_MOTION_DOT": 1.49e-06, "MEAN_MOTION_DDOT": 0}, "tle": {"line1": "1 49056U 21069B   25354.56076157  .00000149  00000+0  00000+0 0  9990", "line2": "2 49056   0.0192  34.4183 0003332 245.1221  59.4319  1.00272090 16132"}}, "geometry": {"type": "Point", "coordinates": [60.21598041065479, 0.02693702598499972]}}, {"type": "Feature", "properties": {"norad_id": 53765, "name": "EUTELSAT KONNECT VHTS", "group": "eutelsat", "lat": -0.05080847674794062, "lon": 15.274954774258692, "alt_km": 35792.22590897028, "timestamp": "2025-12-20T18:51:31.389309+00:00", "meta": {"OBJECT_NAME": "EUTELSAT KONNECT VHTS", "OBJECT_ID": "2022-110A", "EPOCH": "2025-12-20T03:48:38.814048", "MEAN_MOTION": 1.00276689, "ECCENTRICITY": 0.00023926, "INCLINATION": 0.0642, "RA_OF_ASC_NODE": 98.8087, "ARG_OF_PERICENTER": 137.8855, "MEAN_ANOMALY": 272.2232, "EPHEMERIS_TYPE": 0, "CLASSIFICATION_TYPE": "U", "NORAD_CAT_ID": 53765, "ELEMENT_SET_NO": 999, "REV_AT_EPOCH": 503, "BSTAR": 0, "MEAN_MOTION_DOT": 4.2e-07, "MEAN_MOTION_DDOT": 0}, "tle": {"line1": "1 53765U 22110A   25354.15878257  .00000042  00000+0  00000+0 0  9998", "line2": "2 53765   0.0642  98.8087 0002392 137.8855 272.2232  1.00276689  5030"}}, "geometry": {"type": "Point", "coordinates": [15.274954774258692, -0.05080847674794062]}}, {"type": "Feature", "properties": {"norad_id": 54048, "name": "EUTELSAT HOTBIRD 13F", "group": "eutelsat", "lat": 0.05685574431630529, "lon": 25.490783681519183, "alt_km": 35776.57020706908, "timestamp": "2025-12-20T18:51:31.389320+00:00", "meta": {"OBJECT_NAME": "EUTELSAT HOTBIRD 13F", "OBJECT_ID": "2022-134A", "EPOCH": "2025-12-20T04:43:57.443232", "MEAN_MOTION": 1.00272198, "ECCENTRICITY": 0.0002383, "INCLINATION": 0.0482, "RA_OF_ASC_NODE": 295.6006, "ARG_OF_PERICENTER": 68.8406, "MEAN_ANOMALY": 168.5765, "EPHEMERIS_TYPE": 0, "CLASSIFICATION_TYPE": "U", "NORAD_CAT_ID": 54048, "ELEMENT_SET_NO": 999, "REV_AT_EPOCH": 1158, "BSTAR": 0, "MEAN_MOTION_DOT": 1.11e-06, "MEAN_MOTION_DDOT": 0}, "tle": {"line1": "1 54048U 22134A   25354.19719263  .00000111  00000+0  00000+0 0  9991", "line2": "2 54048   0.0482 295.6006 0002383  68.8406 168.5765  1.00272198 11586"}}, "geometry": {"type": "Point", "coordinates": [25.490783681519183, 0.05685574431630529]}}, {"type": "Feature", "properties": {"norad_id": 54225, "name": "EUTELSAT HOTBIRD 13G", "group": "eutelsat", "lat": 0.03065283524400885, "lon": 25.46918861945695, "alt_km": 35792.207779295815, "timestamp": "2025-12-20T18:51:31.389349+00:00", "meta": {"OBJECT_NAME": "EUTELSAT HOTBIRD 13G", "OBJECT_ID": "2022-146A", "EPOCH": "2025-12-19T18:27:37.056960", "MEAN_MOTION": 1.0027241, "ECCENTRICITY": 0.00017892, "INCLINATION": 0.0515, "RA_OF_ASC_NODE": 225.8744, "ARG_OF_PERICENTER": 308.1908, "MEAN_ANOMALY": 204.4423, "EPHEMERIS_TYPE": 0, "CLASSIFICATION_TYPE": "U", "NORAD_CAT_ID": 54225, "ELEMENT_SET_NO": 999, "REV_AT_EPOCH": 566, "BSTAR": 0, "MEAN_MOTION_DOT": 1.12e-06, "MEAN_MOTION_DDOT": 0}, "tle": {"line1": "1 54225U 22146A   25353.76917890  .00000112  00000+0  00000+0 0  9990", "line2": "2 54225   0.0515 225.8744 0001789 308.1908 204.4423  1.00272410  5660"}}, "geometry": {"type": "Point", "coordinates": [25.46918861945695, 0.03065283524400885]}}, {"type": "Feature", "properties": {"norad_id": 54259, "name": "EUTELSAT 10B", "group": "eutelsat", "lat": -0.04252806500880744, "lon": 22.488369133433224, "alt_km": 35785.062673321714, "timestamp": "2025-12-20T18:51:31.389364+00:00", "meta": {"OBJECT_NAME": "EUTELSAT 10B", "OBJECT_ID": "2022-157A", "EPOCH": "2025-12-20T03:00:22.363776", "MEAN_MOTION": 1.00274144, "ECCENTRICITY": 6.752e-05, "INCLINATION": 0.0606, "RA_OF_ASC_NODE": 97.5404, "ARG_OF_PERICENTER": 8.9249, "MEAN_ANOMALY": 37.5953, "EPHEMERIS_TYPE": 0, "CLASSIFICATION_TYPE": "U", "NORAD_CAT_ID": 54259, "ELEMENT_SET_NO": 999, "REV_AT_EPOCH": 1123, "BSTAR": 0, "MEAN_MOTION_DOT": 9.3e-07, "MEAN_MOTION_DDOT": 0}, "tle": {"line1": "1 54259U 22157A   25354.12525884  .00000093  00000+0  00000+0 0  9996", "line2": "2 54259   0.0606  97.5404 0000675   8.9249  37.5953  1.00274144 11230"}}, "geometry": {"type": "Point", "coordinates": [22.488369133433224, -0.04252806500880744]}}, {"type": "Feature", "properties": {"norad_id": 59346, "name": "EUTELSAT 36D", "group": "eutelsat", "lat": 0.028993332131646465, "lon": 48.33567851026431, "alt_km": 35783.714070638685, "timestamp": "2025-12-20T18:51:31.389375+00:00", "meta": {"OBJECT_NAME": "EUTELSAT 36D", "OBJECT_ID": "2024-059A", "EPOCH": "2025-12-19T22:17:14.700768", "MEAN_MOTION": 1.0027216, "ECCENTRICITY": 6.505e-05, "INCLINATION": 0.0247, "RA_OF_ASC_NODE": 22.0433, "ARG_OF_PERICENTER": 347.9809, "MEAN_ANOMALY": 88.8998, "EPHEMERIS_TYPE": 0, "CLASSIFICATION_TYPE": "U", "NORAD_CAT_ID": 59346, "ELEMENT_SET_NO": 999, "REV_AT_EPOCH": 635, "BSTAR": 0, "MEAN_MOTION_DOT": 0, "MEAN_MOTION_DDOT": 0}, "tle": {"line1": "1 59346U 24059A   25353.92864237  .00000000  00000+0  00000+0 0  9994", "line2": "2 59346   0.0247  22.0433 0000650 347.9809  88.8998  1.00272160  6350"}}, "geometry": {"type": "Point", "coordinates": [48.33567851026431, 0.028993332131646465]}}]}